[{"OBJECT_NAME":"ZY-1 02D","OBJECT_ID":"2019-059A","EPOCH":"2026-03-09T22:47:25.027872","MEAN_MOTION":14.35449537,"ECCENTRICITY":0.00025574,"INCLINATION":98.3302,"RA_OF_ASC_NODE":133.9003,"ARG_OF_PERICENTER":74.5944,"MEAN_ANOMALY":285.5525,"EPHEMERIS_TYPE":0,"CLASSIFICATION_TYPE":"U","NORAD_CAT_ID":44528,"ELEMENT_SET_NO":999,"REV_AT_EPOCH":34010,"BSTAR":2.8589968e-5,"MEAN_MOTION_DOT":4.0e-7,"MEAN_MOTION_DDOT":0},{"OBJECT_NAME":"QAEM 100 R\/B","OBJECT_ID":"2024-015B","EPOCH":"2026-03-09T22:48:12.043296","MEAN_MOTION":14.44250605,"ECCENTRICITY":0.00411129,"INCLINATION":64.505,"RA_OF_ASC_NODE":2.7528,"ARG_OF_PERICENTER":260.8544,"MEAN_ANOMALY":98.789,"EPHEMERIS_TYPE":0,"CLASSIFICATION_TYPE":"U","NORAD_CAT_ID":58818,"ELEMENT_SET_NO":999,"REV_AT_EPOCH":11257,"BSTAR":0.00011174706,"MEAN_MOTION_DOT":2.79e-6,"MEAN_MOTION_DDOT":0}]
